{
  "type": "FeatureCollection",
  "features": [
    {
      "type": "Feature",
      "properties": {
        "norad_id": 41330,
        "name": "COSMOS 2514 (751)",
        "group": "gnss",
        "lat": -22.159275214749627,
        "lon": -51.370189100525444,
        "alt_km": 19146.483537180957,
        "timestamp": "2025-12-09T04:51:47.737955+00:00",
        "meta_object_name": "COSMOS 2514 (751)",
        "meta_object_id": "2016-008A",
        "meta_epoch": "2025-12-08T07:06:30.420288",
        "meta_mean_motion": 2.13102512,
        "meta_eccentricity": 0.00122682,
        "meta_inclination": 65.1364,
        "meta_ra_of_asc_node": 319.5561,
        "meta_arg_of_pericenter": 220.0272,
        "meta_mean_anomaly": 139.8771,
        "meta_ephemeris_type": 0,
        "meta_classification_type": "U",
        "meta_norad_cat_id": 41330,
        "meta_element_set_no": 999,
        "meta_rev_at_epoch": 7655,
        "meta_bstar": 0,
        "meta_mean_motion_dot": -4.9e-07,
        "meta_mean_motion_ddot": 0,
        "tle_line1": "1 41330U 16008A   25342.29618542 -.00000049  00000+0  00000+0 0  9991",
        "tle_line2": "2 41330  65.1364 319.5561 0012268 220.0272 139.8771  2.13102512 76558"
      },
      "geometry": {
        "type": "Point",
        "coordinates": [
          -51.370189100525444,
          -22.159275214749627
        ]
      }
    },
    {
      "type": "Feature",
      "properties": {
        "norad_id": 41384,
        "name": "IRNSS-1F",
        "group": "gnss",
        "lat": 4.818174721990292,
        "lon": -176.7737969898789,
        "alt_km": 35799.00645543362,
        "timestamp": "2025-12-09T04:51:47.737972+00:00",
        "meta_object_name": "IRNSS-1F",
        "meta_object_id": "2016-015A",
        "meta_epoch": "2025-12-08T13:45:28.858752",
        "meta_mean_motion": 1.00270316,
        "meta_eccentricity": 0.0022461,
        "meta_inclination": 4.8701,
        "meta_ra_of_asc_node": 101.4031,
        "meta_arg_of_pericenter": 180.1387,
        "meta_mean_anomaly": 34.7689,
        "meta_ephemeris_type": 0,
        "meta_classification_type": "U",
        "meta_norad_cat_id": 41384,
        "meta_element_set_no": 999,
        "meta_rev_at_epoch": 3575,
        "meta_bstar": 0,
        "meta_mean_motion_dot": 1.6e-06,
        "meta_mean_motion_ddot": 0,
        "tle_line1": "1 41384U 16015A   25342.57325068  .00000160  00000+0  00000+0 0  9990",
        "tle_line2": "2 41384   4.8701 101.4031 0022461 180.1387  34.7689  1.00270316 35752"
      },
      "geometry": {
        "type": "Point",
        "coordinates": [
          -176.7737969898789,
          4.818174721990292
        ]
      }
    },
    {
      "type": "Feature",
      "properties": {
        "norad_id": 41434,
        "name": "BEIDOU-2 IGSO-6 (C13)",
        "group": "gnss",
        "lat": -20.31214765187274,
        "lon": -127.67821700027423,
        "alt_km": 35554.48839545934,
        "timestamp": "2025-12-09T04:51:47.737988+00:00",
        "meta_object_name": "BEIDOU-2 IGSO-6 (C13)",
        "meta_object_id": "2016-021A",
        "meta_epoch": "2025-12-03T15:53:57.382080",
        "meta_mean_motion": 1.00293531,
        "meta_eccentricity": 0.0059634,
        "meta_inclination": 59.9536,
        "meta_ra_of_asc_node": 39.991,
        "meta_arg_of_pericenter": 228.541,
        "meta_mean_anomaly": 135.1173,
        "meta_ephemeris_type": 0,
        "meta_classification_type": "U",
        "meta_norad_cat_id": 41434,
        "meta_element_set_no": 999,
        "meta_rev_at_epoch": 3552,
        "meta_bstar": 0,
        "meta_mean_motion_dot": -1.61e-06,
        "meta_mean_motion_ddot": 0,
        "tle_line1": "1 41434U 16021A   25337.66246970 -.00000161  00000+0  00000+0 0  9993",
        "tle_line2": "2 41434  59.9536  39.9910 0059634 228.5410 135.1173  1.00293531 35525"
      },
      "geometry": {
        "type": "Point",
        "coordinates": [
          -127.67821700027423,
          -20.31214765187274
        ]
      }
    },
    {
      "type": "Feature",
      "properties": {
        "norad_id": 41469,
        "name": "IRNSS-1G",
        "group": "gnss",
        "lat": 0.1269213849731375,
        "lon": -79.60983003115058,
        "alt_km": 35810.09914349706,
        "timestamp": "2025-12-09T04:51:47.738001+00:00",
        "meta_object_name": "IRNSS-1G",
        "meta_object_id": "2016-027A",
        "meta_epoch": "2025-12-08T19:21:20.292768",
        "meta_mean_motion": 1.00251249,
        "meta_eccentricity": 0.0004642,
        "meta_inclination": 4.7233,
        "meta_ra_of_asc_node": 102.201,
        "meta_arg_of_pericenter": 336.0207,
        "meta_mean_anomaly": 59.2031,
        "meta_ephemeris_type": 0,
        "meta_classification_type": "U",
        "meta_norad_cat_id": 41469,
        "meta_element_set_no": 999,
        "meta_rev_at_epoch": 3527,
        "meta_bstar": 0,
        "meta_mean_motion_dot": -3.35e-06,
        "meta_mean_motion_ddot": 0,
        "tle_line1": "1 41469U 16027A   25342.80648487 -.00000335  00000+0  00000+0 0  9991",
        "tle_line2": "2 41469   4.7233 102.2010 0004642 336.0207  59.2031  1.00251249 35279"
      },
      "geometry": {
        "type": "Point",
        "coordinates": [
          -79.60983003115058,
          0.1269213849731375
        ]
      }
    },
    {
      "type": "Feature",
      "properties": {
        "norad_id": 41549,
        "name": "GSAT0211 (GALILEO 14)",
        "group": "gnss",
        "lat": -53.42801679828976,
        "lon": 157.178377010144,
        "alt_km": 23228.63975080481,
        "timestamp": "2025-12-09T04:51:47.738013+00:00",
        "meta_object_name": "GSAT0211 (GALILEO 14)",
        "meta_object_id": "2016-030A",
        "meta_epoch": "2025-12-07T13:40:58.264320",
        "meta_mean_motion": 1.70472997,
        "meta_eccentricity": 0.00040128,
        "meta_inclination": 55.154,
        "meta_ra_of_asc_node": 226.9659,
        "meta_arg_of_pericenter": 14.4678,
        "meta_mean_anomaly": 345.6377,
        "meta_ephemeris_type": 0,
        "meta_classification_type": "U",
        "meta_norad_cat_id": 41549,
        "meta_element_set_no": 999,
        "meta_rev_at_epoch": 5940,
        "meta_bstar": 0,
        "meta_mean_motion_dot": 2.3e-07,
        "meta_mean_motion_ddot": 0,
        "tle_line1": "1 41549U 16030A   25341.57011880  .00000023  00000+0  00000+0 0  9991",
        "tle_line2": "2 41549  55.1540 226.9659 0004012  14.4678 345.6377  1.70472997 59400"
      },
      "geometry": {
        "type": "Point",
        "coordinates": [
          157.178377010144,
          -53.42801679828976
        ]
      }
    },
    {
      "type": "Feature",
      "properties": {
        "norad_id": 41550,
        "name": "GSAT0210 (GALILEO 13)",
        "group": "gnss",
        "lat": 42.90615285448964,
        "lon": 6.614523002444483,
        "alt_km": 23219.031974779395,
        "timestamp": "2025-12-09T04:51:47.738026+00:00",
        "meta_object_name": "GSAT0210 (GALILEO 13)",
        "meta_object_id": "2016-030B",
        "meta_epoch": "2025-12-07T19:51:37.971648",
        "meta_mean_motion": 1.70473554,
        "meta_eccentricity": 0.00013454,
        "meta_inclination": 55.1532,
        "meta_ra_of_asc_node": 226.9569,
        "meta_arg_of_pericenter": 243.5769,
        "meta_mean_anomaly": 116.5022,
        "meta_ephemeris_type": 0,
        "meta_classification_type": "U",
        "meta_norad_cat_id": 41550,
        "meta_element_set_no": 999,
        "meta_rev_at_epoch": 5940,
        "meta_bstar": 0,
        "meta_mean_motion_dot": 2.1e-07,
        "meta_mean_motion_ddot": 0,
        "tle_line1": "1 41550U 16030B   25341.82752282  .00000021  00000+0  00000+0 0  9997",
        "tle_line2": "2 41550  55.1532 226.9569 0001345 243.5769 116.5022  1.70473554 59407"
      },
      "geometry": {
        "type": "Point",
        "coordinates": [
          6.614523002444483,
          42.90615285448964
        ]
      }
    },
    {
      "type": "Feature",
      "properties": {
        "norad_id": 41586,
        "name": "BEIDOU-2 G7 (C03)",
        "group": "gnss",
        "lat": -0.4410635820917364,
        "lon": -98.40612233638808,
        "alt_km": 35804.98825416746,
        "timestamp": "2025-12-09T04:51:47.738038+00:00",
        "meta_object_name": "BEIDOU-2 G7 (C03)",
        "meta_object_id": "2016-037A",
        "meta_epoch": "2025-12-08T20:58:40.969920",
        "meta_mean_motion": 1.00268828,
        "meta_eccentricity": 0.0004336,
        "meta_inclination": 1.7471,
        "meta_ra_of_asc_node": 67.6909,
        "meta_arg_of_pericenter": 1.9563,
        "meta_mean_anomaly": 73.366,
        "meta_ephemeris_type": 0,
        "meta_classification_type": "U",
        "meta_norad_cat_id": 41586,
        "meta_element_set_no": 999,
        "meta_rev_at_epoch": 498,
        "meta_bstar": 0,
        "meta_mean_motion_dot": -3.51e-06,
        "meta_mean_motion_ddot": 0,
        "tle_line1": "1 41586U 16037A   25342.87408530 -.00000351  00000+0  00000+0 0  9990",
        "tle_line2": "2 41586   1.7471  67.6909 0004336   1.9563  73.3660  1.00268828  4984"
      },
      "geometry": {
        "type": "Point",
        "coordinates": [
          -98.40612233638808,
          -0.4410635820917364
        ]
      }
    }
  ]
}